CCSDS_OMM_VERS = 2.0
CREATION_DATE  = 
ORIGINATOR     = 

OBJECT_NAME    = SL-16 R/B
OBJECT_ID      = 1998-043G
CENTER_NAME    = EARTH
REF_FRAME      = TEME
TIME_SYSTEM    = UTC
MEAN_ELEMENT_THEORY = SGP/SGP4

EPOCH          = 2026-02-16T19:44:56.899392
MEAN_MOTION    = 14.26044667
ECCENTRICITY   = .0010947
INCLINATION    = 98.8219
RA_OF_ASC_NODE = 1.0430
ARG_OF_PERICENTER = 76.2575
MEAN_ANOMALY   = 283.9822

EPHEMERIS_TYPE = 0
CLASSIFICATION_TYPE = U
NORAD_CAT_ID   = 25400
ELEMENT_SET_NO = 999
REV_AT_EPOCH   = 43601
BSTAR          = .41586E-4
MEAN_MOTION_DOT = .54E-6
MEAN_MOTION_DDOT = 0

CCSDS_OMM_VERS = 2.0
CREATION_DATE  = 
ORIGINATOR     = 

OBJECT_NAME    = SL-16 R/B
OBJECT_ID      = 1998-045B
CENTER_NAME    = EARTH
REF_FRAME      = TEME
TIME_SYSTEM    = UTC
MEAN_ELEMENT_THEORY = SGP/SGP4

EPOCH          = 2026-02-16T19:22:09.615072
MEAN_MOTION    = 14.16189060
ECCENTRICITY   = .0005721
INCLINATION    = 71.0089
RA_OF_ASC_NODE = 225.4881
ARG_OF_PERICENTER = 45.6734
MEAN_ANOMALY   = 314.4857

EPHEMERIS_TYPE = 0
CLASSIFICATION_TYPE = U
NORAD_CAT_ID   = 25407
ELEMENT_SET_NO = 999
REV_AT_EPOCH   = 42414
BSTAR          = .16975E-3
MEAN_MOTION_DOT = .288E-5
MEAN_MOTION_DDOT = 0

CCSDS_OMM_VERS = 2.0
CREATION_DATE  = 
ORIGINATOR     = 

OBJECT_NAME    = ISS (ZARYA)
OBJECT_ID      = 1998-067A
CENTER_NAME    = EARTH
REF_FRAME      = TEME
TIME_SYSTEM    = UTC
MEAN_ELEMENT_THEORY = SGP/SGP4

EPOCH          = 2026-02-16T20:38:42.613152
MEAN_MOTION    = 15.48651335
ECCENTRICITY   = .001102
INCLINATION    = 51.6319
RA_OF_ASC_NODE = 175.3161
ARG_OF_PERICENTER = 105.9454
MEAN_ANOMALY   = 254.2749

EPHEMERIS_TYPE = 0
CLASSIFICATION_TYPE = U
NORAD_CAT_ID   = 25544
ELEMENT_SET_NO = 999
REV_AT_EPOCH   = 55310
BSTAR          = .17877E-3
MEAN_MOTION_DOT = .9307E-4
MEAN_MOTION_DDOT = 0

CCSDS_OMM_VERS = 2.0
CREATION_DATE  = 
ORIGINATOR     = 

OBJECT_NAME    = CZ-4B R/B
OBJECT_ID      = 1999-025C
CENTER_NAME    = EARTH
REF_FRAME      = TEME
TIME_SYSTEM    = UTC
MEAN_ELEMENT_THEORY = SGP/SGP4

EPOCH          = 2026-02-16T17:19:43.346208
MEAN_MOTION    = 14.18261030
ECCENTRICITY   = .0037855
INCLINATION    = 98.6669
RA_OF_ASC_NODE = 92.4959
ARG_OF_PERICENTER = 46.5903
MEAN_ANOMALY   = 62.9935

EPHEMERIS_TYPE = 0
CLASSIFICATION_TYPE = U
NORAD_CAT_ID   = 25732
ELEMENT_SET_NO = 999
REV_AT_EPOCH   = 38519
BSTAR          = .44309E-4
MEAN_MOTION_DOT = .49E-6
MEAN_MOTION_DDOT = 0

CCSDS_OMM_VERS = 2.0
CREATION_DATE  = 
ORIGINATOR     = 

OBJECT_NAME    = OKEAN-O
OBJECT_ID      = 1999-039A
CENTER_NAME    = EARTH
REF_FRAME      = TEME
TIME_SYSTEM    = UTC
MEAN_ELEMENT_THEORY = SGP/SGP4

EPOCH          = 2026-02-16T18:22:07.038336
MEAN_MOTION    = 14.80300263
ECCENTRICITY   = .0001811
INCLINATION    = 97.9489
RA_OF_ASC_NODE = 107.8647
ARG_OF_PERICENTER = 81.5303
MEAN_ANOMALY   = 278.6114

EPHEMERIS_TYPE = 0
CLASSIFICATION_TYPE = U
NORAD_CAT_ID   = 25860
ELEMENT_SET_NO = 999
REV_AT_EPOCH   = 43129
BSTAR          = .97478E-4
MEAN_MOTION_DOT = .69E-5
MEAN_MOTION_DDOT = 0

CCSDS_OMM_VERS = 2.0
CREATION_DATE  = 
ORIGINATOR     = 

OBJECT_NAME    = SL-16 R/B
OBJECT_ID      = 1999-039B
CENTER_NAME    = EARTH
REF_FRAME      = TEME
TIME_SYSTEM    = UTC
MEAN_ELEMENT_THEORY = SGP/SGP4

EPOCH          = 2026-02-16T18:21:34.701408
MEAN_MOTION    = 14.81701154
ECCENTRICITY   = .0014021
INCLINATION    = 98.0012
RA_OF_ASC_NODE = 106.8878
ARG_OF_PERICENTER = 330.1554
MEAN_ANOMALY   = 29.8857

EPHEMERIS_TYPE = 0
CLASSIFICATION_TYPE = U
NORAD_CAT_ID   = 25861
ELEMENT_SET_NO = 999
REV_AT_EPOCH   = 43376
BSTAR          = .79315E-4
MEAN_MOTION_DOT = .571E-5
MEAN_MOTION_DDOT = 0

CCSDS_OMM_VERS = 2.0
CREATION_DATE  = 
ORIGINATOR     = 

OBJECT_NAME    = DELTA 2 R/B
OBJECT_ID      = 1999-041E
CENTER_NAME    = EARTH
REF_FRAME      = TEME
TIME_SYSTEM    = UTC
MEAN_ELEMENT_THEORY = SGP/SGP4

EPOCH          = 2026-02-16T08:17:14.122176
MEAN_MOTION    = 14.11756969
ECCENTRICITY   = .05022403
INCLINATION    = 51.7657
RA_OF_ASC_NODE = 26.5187
ARG_OF_PERICENTER = 285.3876
MEAN_ANOMALY   = 69.2117

EPHEMERIS_TYPE = 0
CLASSIFICATION_TYPE = U
NORAD_CAT_ID   = 25876
ELEMENT_SET_NO = 999
REV_AT_EPOCH   = 36001
BSTAR          = .38267583E-3
MEAN_MOTION_DOT = .2147E-4
MEAN_MOTION_DDOT = 0

CCSDS_OMM_VERS = 2.0
CREATION_DATE  = 
ORIGINATOR     = 

OBJECT_NAME    = HELIOS 1B
OBJECT_ID      = 1999-064A
CENTER_NAME    = EARTH
REF_FRAME      = TEME
TIME_SYSTEM    = UTC
MEAN_ELEMENT_THEORY = SGP/SGP4

EPOCH          = 2026-02-16T17:28:54.429600
MEAN_MOTION    = 14.87608192
ECCENTRICITY   = .0002317
INCLINATION    = 98.1721
RA_OF_ASC_NODE = 309.3536
ARG_OF_PERICENTER = 102.7205
MEAN_ANOMALY   = 257.4269

EPHEMERIS_TYPE = 0
CLASSIFICATION_TYPE = U
NORAD_CAT_ID   = 25977
ELEMENT_SET_NO = 999
REV_AT_EPOCH   = 68214
BSTAR          = .20307E-3
MEAN_MOTION_DOT = .1787E-4
MEAN_MOTION_DDOT = 0

CCSDS_OMM_VERS = 2.0
CREATION_DATE  = 
ORIGINATOR     = 

OBJECT_NAME    = TERRA
OBJECT_ID      = 1999-068A
CENTER_NAME    = EARTH
REF_FRAME      = TEME
TIME_SYSTEM    = UTC
MEAN_ELEMENT_THEORY = SGP/SGP4

EPOCH          = 2026-02-16T21:44:09.153600
MEAN_MOTION    = 14.60991913
ECCENTRICITY   = .0001225
INCLINATION    = 97.9638
RA_OF_ASC_NODE = 102.1297
ARG_OF_PERICENTER = 217.5279
MEAN_ANOMALY   = 258.7610

EPHEMERIS_TYPE = 0
CLASSIFICATION_TYPE = U
NORAD_CAT_ID   = 25994
ELEMENT_SET_NO = 999
REV_AT_EPOCH   = 39204
BSTAR          = .11768E-3
MEAN_MOTION_DOT = .533E-5
MEAN_MOTION_DDOT = 0

CCSDS_OMM_VERS = 2.0
CREATION_DATE  = 
ORIGINATOR     = 

OBJECT_NAME    = SL-16 R/B
OBJECT_ID      = 2000-006B
CENTER_NAME    = EARTH
REF_FRAME      = TEME
TIME_SYSTEM    = UTC
MEAN_ELEMENT_THEORY = SGP/SGP4

EPOCH          = 2026-02-16T16:13:01.603200
MEAN_MOTION    = 14.15818596
ECCENTRICITY   = .0018026
INCLINATION    = 71.0024
RA_OF_ASC_NODE = 142.0224
ARG_OF_PERICENTER = 219.7529
MEAN_ANOMALY   = 140.2274

EPHEMERIS_TYPE = 0
CLASSIFICATION_TYPE = U
NORAD_CAT_ID   = 26070
ELEMENT_SET_NO = 999
REV_AT_EPOCH   = 34558
BSTAR          = -.61212E-4
MEAN_MOTION_DOT = -.168E-5
MEAN_MOTION_DDOT = 0

CCSDS_OMM_VERS = 2.0
CREATION_DATE  = 
ORIGINATOR     = 

OBJECT_NAME    = TITAN 4B R/B
OBJECT_ID      = 2000-047B
CENTER_NAME    = EARTH
REF_FRAME      = TEME
TIME_SYSTEM    = UTC
MEAN_ELEMENT_THEORY = SGP/SGP4

EPOCH          = 2026-02-16T18:10:52.543776
MEAN_MOTION    = 15.09375956
ECCENTRICITY   = .0037176
INCLINATION    = 67.9887
RA_OF_ASC_NODE = 99.3638
ARG_OF_PERICENTER = 60.9005
MEAN_ANOMALY   = 299.5858

EPHEMERIS_TYPE = 0
CLASSIFICATION_TYPE = U
NORAD_CAT_ID   = 26474
ELEMENT_SET_NO = 999
REV_AT_EPOCH   = 38975
BSTAR          = .20713E-3
MEAN_MOTION_DOT = .3233E-4
MEAN_MOTION_DDOT = 0

CCSDS_OMM_VERS = 2.0
CREATION_DATE  = 
ORIGINATOR     = 

OBJECT_NAME    = ENVISAT
OBJECT_ID      = 2002-009A
CENTER_NAME    = EARTH
REF_FRAME      = TEME
TIME_SYSTEM    = UTC
MEAN_ELEMENT_THEORY = SGP/SGP4

EPOCH          = 2026-02-16T21:11:53.073024
MEAN_MOTION    = 14.39028855
ECCENTRICITY   = .0001359
INCLINATION    = 98.3694
RA_OF_ASC_NODE = 1.9807
ARG_OF_PERICENTER = 87.0236
MEAN_ANOMALY   = 290.5798

EPHEMERIS_TYPE = 0
CLASSIFICATION_TYPE = U
NORAD_CAT_ID   = 27386
ELEMENT_SET_NO = 999
REV_AT_EPOCH   = 25618
BSTAR          = .50534E-4
MEAN_MOTION_DOT = .113E-5
MEAN_MOTION_DDOT = 0

