SL-16 R/B               
1 25400U 98043G   26047.82288078  .00000054  00000+0  41586-4 0  9993
2 25400  98.8219   1.0430 0010947  76.2575 283.9822 14.26044667436019
SL-16 R/B               
1 25407U 98045B   26047.80705573  .00000288  00000+0  16975-3 0  9996
2 25407  71.0089 225.4881 0005721  45.6734 314.4857 14.16189060424142
ISS (ZARYA)             
1 25544U 98067A   26047.86021543  .00009307  00000+0  17877-3 0  9999
2 25544  51.6319 175.3161 0011020 105.9454 254.2749 15.48651335553101
CZ-4B R/B               
1 25732U 99025C   26047.72202947  .00000049  00000+0  44309-4 0  9992
2 25732  98.6669  92.4959 0037855  46.5903  62.9935 14.18261030385194
OKEAN-O                 
1 25860U 99039A   26047.76535924  .00000690  00000+0  97478-4 0  9994
2 25860  97.9489 107.8647 0001811  81.5303 278.6114 14.80300263431298
SL-16 R/B               
1 25861U 99039B   26047.76498497  .00000571  00000+0  79315-4 0  9996
2 25861  98.0012 106.8878 0014021 330.1554  29.8857 14.81701154433765
DELTA 2 R/B             
1 25876U 99041E   26047.34530234  .00002147  00000+0  38268-3 0  9997
2 25876  51.7657  26.5187 0502240 285.3876  69.2117 14.11756969360017
HELIOS 1B               
1 25977U 99064A   26047.72840775  .00001787  00000+0  20307-3 0  9994
2 25977  98.1721 309.3536 0002317 102.7205 257.4269 14.87608192682141
TERRA                   
1 25994U 99068A   26047.90566150  .00000533  00000+0  11768-3 0  9998
2 25994  97.9638 102.1297 0001225 217.5279 258.7610 14.60991913392048
SL-16 R/B               
1 26070U 00006B   26047.67571300 -.00000168  00000+0 -61212-4 0  9991
2 26070  71.0024 142.0224 0018026 219.7529 140.2274 14.15818596345581
TITAN 4B R/B            
1 26474U 00047B   26047.75755259  .00003233  00000+0  20713-3 0  9994
2 26474  67.9887  99.3638 0037176  60.9005 299.5858 15.09375956389750
ENVISAT                 
1 27386U 02009A   26047.88325316  .00000113  00000+0  50534-4 0  9997
2 27386  98.3694   1.9807 0001359  87.0236 290.5798 14.39028855256183
